{
  "type": "FeatureCollection",
  "features": [
    {
      "type": "Feature",
      "properties": {
        "norad_id": 64751,
        "name": "PROGRESS-MS 31",
        "group": "stations",
        "lat": 6.303973331087763,
        "lon": 144.64405373712728,
        "alt_km": 419.17323151234996,
        "timestamp": "2025-12-13T07:35:40.356668+00:00",
        "meta_object_name": "PROGRESS-MS 31",
        "meta_object_id": "2025-146A",
        "meta_epoch": "2025-12-12T20:43:30.984384",
        "meta_mean_motion": 15.49550036,
        "meta_eccentricity": 0.00032451,
        "meta_inclination": 51.6304,
        "meta_ra_of_asc_node": 141.8664,
        "meta_arg_of_pericenter": 240.6311,
        "meta_mean_anomaly": 119.4354,
        "meta_ephemeris_type": 0,
        "meta_classification_type": "U",
        "meta_norad_cat_id": 64751,
        "meta_element_set_no": 999,
        "meta_rev_at_epoch": 675,
        "meta_bstar": 0.00025741225,
        "meta_mean_motion_dot": 0.00014033,
        "meta_mean_motion_ddot": 0,
        "tle_line1": "1 64751U 25146A   25346.86355306  .00014033  00000+0  25741-3 0  9999",
        "tle_line2": "2 64751  51.6304 141.8664 0003245 240.6311 119.4354 15.49550036  6758"
      },
      "geometry": {
        "type": "Point",
        "coordinates": [
          144.64405373712728,
          6.303973331087763
        ]
      }
    },
    {
      "type": "Feature",
      "properties": {
        "norad_id": 64786,
        "name": "TIANZHOU-9",
        "group": "stations",
        "lat": 23.803149522430825,
        "lon": 163.23853540772132,
        "alt_km": 387.6913080230752,
        "timestamp": "2025-12-13T07:35:40.356678+00:00",
        "meta_object_name": "TIANZHOU-9",
        "meta_object_id": "2025-149A",
        "meta_epoch": "2025-12-12T23:18:04.584096",
        "meta_mean_motion": 15.5917806,
        "meta_eccentricity": 0.00082454,
        "meta_inclination": 41.4684,
        "meta_ra_of_asc_node": 15.3046,
        "meta_arg_of_pericenter": 32.5257,
        "meta_mean_anomaly": 327.6088,
        "meta_ephemeris_type": 0,
        "meta_classification_type": "U",
        "meta_norad_cat_id": 64786,
        "meta_element_set_no": 999,
        "meta_rev_at_epoch": 25530,
        "meta_bstar": 0.00033032775,
        "meta_mean_motion_dot": 0.00026417,
        "meta_mean_motion_ddot": 0,
        "tle_line1": "1 64786U 25149A   25346.97088639  .00026417  00000+0  33033-3 0  9996",
        "tle_line2": "2 64786  41.4684  15.3046 0008245  32.5257 327.6088 15.59178060255303"
      },
      "geometry": {
        "type": "Point",
        "coordinates": [
          163.23853540772132,
          23.803149522430825
        ]
      }
    },
    {
      "type": "Feature",
      "properties": {
        "norad_id": 65077,
        "name": "CREW DRAGON 11",
        "group": "stations",
        "lat": 6.303974289560461,
        "lon": 144.64405450765798,
        "alt_km": 419.17323141446013,
        "timestamp": "2025-12-13T07:35:40.356687+00:00",
        "meta_object_name": "CREW DRAGON 11",
        "meta_object_id": "2025-166A",
        "meta_epoch": "2025-12-12T20:43:30.984384",
        "meta_mean_motion": 15.49550036,
        "meta_eccentricity": 0.00032451,
        "meta_inclination": 51.6304,
        "meta_ra_of_asc_node": 141.8664,
        "meta_arg_of_pericenter": 240.6311,
        "meta_mean_anomaly": 119.4354,
        "meta_ephemeris_type": 0,
        "meta_classification_type": "U",
        "meta_norad_cat_id": 65077,
        "meta_element_set_no": 999,
        "meta_rev_at_epoch": 214,
        "meta_bstar": 0.00025741225,
        "meta_mean_motion_dot": 0.00014033,
        "meta_mean_motion_ddot": 0,
        "tle_line1": "1 65077U 25166A   25346.86355306  .00014033  00000+0  25741-3 0  9993",
        "tle_line2": "2 65077  51.6304 141.8664 0003245 240.6311 119.4354 15.49550036  2149"
      },
      "geometry": {
        "type": "Point",
        "coordinates": [
          144.64405450765798,
          6.303974289560461
        ]
      }
    },
    {
      "type": "Feature",
      "properties": {
        "norad_id": 65304,
        "name": "DRAGON CRS-33",
        "group": "stations",
        "lat": 6.303974743573774,
        "lon": 144.6440548726461,
        "alt_km": 419.17323136809046,
        "timestamp": "2025-12-13T07:35:40.356696+00:00",
        "meta_object_name": "DRAGON CRS-33",
        "meta_object_id": "2025-186A",
        "meta_epoch": "2025-12-12T20:43:30.984384",
        "meta_mean_motion": 15.49550036,
        "meta_eccentricity": 0.00032451,
        "meta_inclination": 51.6304,
        "meta_ra_of_asc_node": 141.8664,
        "meta_arg_of_pericenter": 240.6311,
        "meta_mean_anomaly": 119.4354,
        "meta_ephemeris_type": 0,
        "meta_classification_type": "U",
        "meta_norad_cat_id": 65304,
        "meta_element_set_no": 999,
        "meta_rev_at_epoch": 11,
        "meta_bstar": 0.00025741225,
        "meta_mean_motion_dot": 0.00014033,
        "meta_mean_motion_ddot": 0,
        "tle_line1": "1 65304U 25186A   25346.86355306  .00014033  00000+0  25741-3 0  9998",
        "tle_line2": "2 65304  51.6304 141.8664 0003245 240.6311 119.4354 15.49550036   117"
      },
      "geometry": {
        "type": "Point",
        "coordinates": [
          144.6440548726461,
          6.303974743573774
        ]
      }
    },
    {
      "type": "Feature",
      "properties": {
        "norad_id": 65586,
        "name": "PROGRESS-MS 32",
        "group": "stations",
        "lat": 6.3039752480331614,
        "lon": 144.64405527818863,
        "alt_km": 419.17323131656576,
        "timestamp": "2025-12-13T07:35:40.356706+00:00",
        "meta_object_name": "PROGRESS-MS 32",
        "meta_object_id": "2025-204A",
        "meta_epoch": "2025-12-12T20:43:30.984384",
        "meta_mean_motion": 15.49550036,
        "meta_eccentricity": 0.00032451,
        "meta_inclination": 51.6304,
        "meta_ra_of_asc_node": 141.8664,
        "meta_arg_of_pericenter": 240.6311,
        "meta_mean_anomaly": 119.4354,
        "meta_ephemeris_type": 0,
        "meta_classification_type": "U",
        "meta_norad_cat_id": 65586,
        "meta_element_set_no": 999,
        "meta_rev_at_epoch": 27,
        "meta_bstar": 0.00025741225,
        "meta_mean_motion_dot": 0.00014033,
        "meta_mean_motion_ddot": 0,
        "tle_line1": "1 65586U 25204A   25346.86355306  .00014033  00000+0  25741-3 0  9991",
        "tle_line2": "2 65586  51.6304 141.8664 0003245 240.6311 119.4354 15.49550036   276"
      },
      "geometry": {
        "type": "Point",
        "coordinates": [
          144.64405527818863,
          6.3039752480331614
        ]
      }
    },
    {
      "type": "Feature",
      "properties": {
        "norad_id": 65616,
        "name": "CYGNUS NG-23",
        "group": "stations",
        "lat": 6.30397570204647,
        "lon": 144.64405564317676,
        "alt_km": 419.1732312701979,
        "timestamp": "2025-12-13T07:35:40.356715+00:00",
        "meta_object_name": "CYGNUS NG-23",
        "meta_object_id": "2025-208A",
        "meta_epoch": "2025-12-12T20:43:30.984384",
        "meta_mean_motion": 15.49550036,
        "meta_eccentricity": 0.00032451,
        "meta_inclination": 51.6304,
        "meta_ra_of_asc_node": 141.8664,
        "meta_arg_of_pericenter": 240.6311,
        "meta_mean_anomaly": 119.4354,
        "meta_ephemeris_type": 0,
        "meta_classification_type": "U",
        "meta_norad_cat_id": 65616,
        "meta_element_set_no": 999,
        "meta_rev_at_epoch": 22,
        "meta_bstar": 0.00025741225,
        "meta_mean_motion_dot": 0.00014033,
        "meta_mean_motion_ddot": 0,
        "tle_line1": "1 65616U 25208A   25346.86355306  .00014033  00000+0  25741-3 0  9999",
        "tle_line2": "2 65616  51.6304 141.8664 0003245 240.6311 119.4354 15.49550036   225"
      },
      "geometry": {
        "type": "Point",
        "coordinates": [
          144.64405564317676,
          6.30397570204647
        ]
      }
    },
    {
      "type": "Feature",
      "properties": {
        "norad_id": 65729,
        "name": "DRAGONFLY",
        "group": "stations",
        "lat": 25.216199541788978,
        "lon": 154.7214657250418,
        "alt_km": 351.5258967953523,
        "timestamp": "2025-12-13T07:35:40.356725+00:00",
        "meta_object_name": "DRAGONFLY",
        "meta_object_id": "1998-067XH",
        "meta_epoch": "2025-12-12T16:11:54.021120",
        "meta_mean_motion": 15.71879709,
        "meta_eccentricity": 0.0006787,
        "meta_inclination": 51.6248,
        "meta_ra_of_asc_node": 136.0967,
        "meta_arg_of_pericenter": 276.9077,
        "meta_mean_anomaly": 83.1148,
        "meta_ephemeris_type": 0,
        "meta_classification_type": "U",
        "meta_norad_cat_id": 65729,
        "meta_element_set_no": 999,
        "meta_rev_at_epoch": 1315,
        "meta_bstar": 0.001612676,
        "meta_mean_motion_dot": 0.00219639,
        "meta_mean_motion_ddot": 0,
        "tle_line1": "1 65729U 98067XH  25346.67493080  .00219639  00000+0  16127-2 0  9994",
        "tle_line2": "2 65729  51.6248 136.0967 0006787 276.9077  83.1148 15.71879709 13154"
      },
      "geometry": {
        "type": "Point",
        "coordinates": [
          154.7214657250418,
          25.216199541788978
        ]
      }
    }
  ]
}